[{"OBJECT_NAME":"STARLINK-6095","OBJECT_ID":"2023-046J","EPOCH":"2026-03-09T05:46:04.840320","MEAN_MOTION":15.02532627,"ECCENTRICITY":8.256e-5,"INCLINATION":42.9998,"RA_OF_ASC_NODE":161.456,"ARG_OF_PERICENTER":219.4231,"MEAN_ANOMALY":140.6552,"EPHEMERIS_TYPE":0,"CLASSIFICATION_TYPE":"U","NORAD_CAT_ID":56101,"ELEMENT_SET_NO":999,"REV_AT_EPOCH":16199,"BSTAR":7.92342e-7,"MEAN_MOTION_DOT":-1.93e-6,"MEAN_MOTION_DDOT":0},{"OBJECT_NAME":"CZ-6A DEB","OBJECT_ID":"2024-140BF","EPOCH":"2026-03-09T14:11:25.351296","MEAN_MOTION":14.73413114,"ECCENTRICITY":0.0141768,"INCLINATION":88.9712,"RA_OF_ASC_NODE":279.0945,"ARG_OF_PERICENTER":214.1655,"MEAN_ANOMALY":145.0382,"EPHEMERIS_TYPE":0,"CLASSIFICATION_TYPE":"U","NORAD_CAT_ID":60654,"ELEMENT_SET_NO":999,"REV_AT_EPOCH":8470,"BSTAR":0.0017796,"MEAN_MOTION_DOT":0.0001358,"MEAN_MOTION_DDOT":0}]
